{"type": "FeatureCollection", "features": [ {"type": "Feature", "properties": {"norad_id": 66660, "name": "K-HERO", "group": "last-30-days", "lat": -59.97045854427145, "lon": 85.27128654235007, "alt_km": 587.6802221424714, "timestamp": "2025-12-17T17:50:17.973466+00:00", "meta": {"OBJECT_NAME": "K-HERO", "OBJECT_ID": "2025-274L", "EPOCH": "2025-12-17T07:06:39.240864", "MEAN_MOTION": 14.92988627, "ECCENTRICITY": 0.0012493, "INCLINATION": 97.7403, "RA_OF_ASC_NODE": 278.4411, "ARG_OF_PERICENTER": 263.9553, "MEAN_ANOMALY": 96.0243, "EPHEMERIS_TYPE": 0, "CLASSIFICATION_TYPE": "U", "NORAD_CAT_ID": 66660, "ELEMENT_SET_NO": 999, "REV_AT_EPOCH": 308, "BSTAR": 0.000262489, "MEAN_MOTION_DOT": 2.675e-05, "MEAN_MOTION_DDOT": 0}, "tle": {"line1": "1 66660U 25274L   25351.29628751  .00002675  00000+0  26249-3 0  9995", "line2": "2 66660  97.7403 278.4411 0012493 263.9553  96.0243 14.92988627  3086"}}, "geometry": {"type": "Point", "coordinates": [85.27128654235007, -59.97045854427145]}}, {"type": "Feature", "properties": {"norad_id": 66661, "name": "SNUGLITE-III", "group": "last-30-days", "lat": -70.40400527966, "lon": 76.42473698415958, "alt_km": 586.5484043847964, "timestamp": "2025-12-17T17:50:17.973476+00:00", "meta": {"OBJECT_NAME": "SNUGLITE-III", "OBJECT_ID": "2025-274M", "EPOCH": "2025-12-17T07:03:44.887392", "MEAN_MOTION": 14.93123227, "ECCENTRICITY": 0.00131135, "INCLINATION": 97.7399, "RA_OF_ASC_NODE": 278.4429, "ARG_OF_PERICENTER": 265.223, "MEAN_ANOMALY": 94.7493, "EPHEMERIS_TYPE": 0, "CLASSIFICATION_TYPE": "U", "NORAD_CAT_ID": 66661, "ELEMENT_SET_NO": 999, "REV_AT_EPOCH": 308, "BSTAR": 0.00023165098, "MEAN_MOTION_DOT": 2.362e-05, "MEAN_MOTION_DDOT": 0}, "tle": {"line1": "1 66661U 25274M   25351.29426953  .00002362  00000+0  23165-3 0  9993", "line2": "2 66661  97.7399 278.4429 0013113 265.2230  94.7493 14.93123227  3087"}}, "geometry": {"type": "Point", "coordinates": [76.42473698415958, -70.40400527966]}}, {"type": "Feature", "properties": {"norad_id": 66662, "name": "2025-274N", "group": "last-30-days", "lat": -74.27813585528051, "lon": 69.99523521087697, "alt_km": 585.9899865686475, "timestamp": "2025-12-17T17:50:17.973488+00:00", "meta": {"OBJECT_NAME": "2025-274N", "OBJECT_ID": "2025-274N", "EPOCH": "2025-12-17T07:02:36.581280", "MEAN_MOTION": 14.93177593, "ECCENTRICITY": 0.00135404, "INCLINATION": 97.7399, "RA_OF_ASC_NODE": 278.4442, "ARG_OF_PERICENTER": 264.817, "MEAN_ANOMALY": 95.1505, "EPHEMERIS_TYPE": 0, "CLASSIFICATION_TYPE": "U", "NORAD_CAT_ID": 66662, "ELEMENT_SET_NO": 999, "REV_AT_EPOCH": 308, "BSTAR": 0.00024747448, "MEAN_MOTION_DOT": 2.531e-05, "MEAN_MOTION_DDOT": 0}, "tle": {"line1": "1 66662U 25274N   25351.29347895  .00002531  00000+0  24747-3 0  9996", "line2": "2 66662  97.7399 278.4442 0013540 264.8170  95.1505 14.93177593  3089"}}, "geometry": {"type": "Point", "coordinates": [69.99523521087697, -74.27813585528051]}}, {"type": "Feature", "properties": {"norad_id": 66663, "name": "KSLV-II R/B", "group": "last-30-days", "lat": -33.03232148506638, "lon": 93.96359348540219, "alt_km": 580.3739087122904, "timestamp": "2025-12-17T17:50:17.973498+00:00", "meta": {"OBJECT_NAME": "KSLV-II R/B", "OBJECT_ID": "2025-274P", "EPOCH": "2025-12-16T16:49:36.043104", "MEAN_MOTION": 14.97367588, "ECCENTRICITY": 0.00548465, "INCLINATION": 97.7431, "RA_OF_ASC_NODE": 278.0066, "ARG_OF_PERICENTER": 305.8627, "MEAN_ANOMALY": 53.7508, "EPHEMERIS_TYPE": 0, "CLASSIFICATION_TYPE": "U", "NORAD_CAT_ID": 66663, "ELEMENT_SET_NO": 999, "REV_AT_EPOCH": 300, "BSTAR": 0.00058875803, "MEAN_MOTION_DOT": 6.993e-05, "MEAN_MOTION_DDOT": 0}, "tle": {"line1": "1 66663U 25274P   25350.70111161  .00006993  00000+0  58876-3 0  9993", "line2": "2 66663  97.7431 278.0066 0054846 305.8627  53.7508 14.97367588  3006"}}, "geometry": {"type": "Point", "coordinates": [93.96359348540219, -33.03232148506638]}}, {"type": "Feature", "properties": {"norad_id": 66664, "name": "SOYUZ-MS 28", "group": "last-30-days", "lat": -42.683396898777005, "lon": -15.357750559131702, "alt_km": 420.1186850346703, "timestamp": "2025-12-17T17:50:17.973511+00:00", "meta": {"OBJECT_NAME": "SOYUZ-MS 28", "OBJECT_ID": "2025-275A", "EPOCH": "2025-12-17T01:19:48.717408", "MEAN_MOTION": 15.49629327, "ECCENTRICITY": 0.00031735, "INCLINATION": 51.6309, "RA_OF_ASC_NODE": 121.1077, "ARG_OF_PERICENTER": 260.4156, "MEAN_ANOMALY": 99.6474, "EPHEMERIS_TYPE": 0, "CLASSIFICATION_TYPE": "U", "NORAD_CAT_ID": 66664, "ELEMENT_SET_NO": 999, "REV_AT_EPOCH": 128, "BSTAR": 0.00014583435, "MEAN_MOTION_DOT": 7.77e-05, "MEAN_MOTION_DDOT": 0}, "tle": {"line1": "1 66664U 25275A   25351.05542497  .00007770  00000+0  14583-3 0  9995", "line2": "2 66664  51.6309 121.1077 0003173 260.4156  99.6474 15.49629327  1289"}}, "geometry": {"type": "Point", "coordinates": [-15.357750559131702, -42.683396898777005]}}, {"type": "Feature", "properties": {"norad_id": 66791, "name": "STARLINK-35867", "group": "last-30-days", "lat": 42.92428727070641, "lon": -51.985244703767734, "alt_km": 341.31430027062197, "timestamp": "2025-12-17T17:50:17.973523+00:00", "meta": {"OBJECT_NAME": "STARLINK-35867", "OBJECT_ID": "2025-278A", "EPOCH": "2025-12-17T08:00:04.999680", "MEAN_MOTION": 15.75453274, "ECCENTRICITY": 0.00015476, "INCLINATION": 42.9993, "RA_OF_ASC_NODE": 224.0275, "ARG_OF_PERICENTER": 265.0976, "MEAN_ANOMALY": 15.7737, "EPHEMERIS_TYPE": 0, "CLASSIFICATION_TYPE": "U", "NORAD_CAT_ID": 66791, "ELEMENT_SET_NO": 999, "REV_AT_EPOCH": 369, "BSTAR": -0.010134836, "MEAN_MOTION_DOT": -0.01406257, "MEAN_MOTION_DDOT": 0}, "tle": {"line1": "1 66791U 25278A   25351.33339120 -.01406257  00000+0 -10135-1 0  9990", "line2": "2 66791  42.9993 224.0275 0001547 265.0976  15.7737 15.75453274  3692"}}, "geometry": {"type": "Point", "coordinates": [-51.985244703767734, 42.92428727070641]}}, {"type": "Feature", "properties": {"norad_id": 66792, "name": "STARLINK-35990", "group": "last-30-days", "lat": 42.974906906435514, "lon": -49.36444043026475, "alt_km": 341.5527797301511, "timestamp": "2025-12-17T17:50:17.973534+00:00", "meta": {"OBJECT_NAME": "STARLINK-35990", "OBJECT_ID": "2025-278B", "EPOCH": "2025-12-17T08:00:04.999680", "MEAN_MOTION": 15.75454901, "ECCENTRICITY": 0.00019532, "INCLINATION": 42.9993, "RA_OF_ASC_NODE": 224.023, "ARG_OF_PERICENTER": 276.0809, "MEAN_ANOMALY": 6.7027, "EPHEMERIS_TYPE": 0, "CLASSIFICATION_TYPE": "U", "NORAD_CAT_ID": 66792, "ELEMENT_SET_NO": 999, "REV_AT_EPOCH": 369, "BSTAR": -0.010131486, "MEAN_MOTION_DOT": -0.01406185, "MEAN_MOTION_DDOT": 0}, "tle": {"line1": "1 66792U 25278B   25351.33339120 -.01406185  00000+0 -10131-1 0  9997", "line2": "2 66792  42.9993 224.0230 0001953 276.0809   6.7027 15.75454901  3692"}}, "geometry": {"type": "Point", "coordinates": [-49.36444043026475, 42.974906906435514]}}, {"type": "Feature", "properties": {"norad_id": 66793, "name": "STARLINK-36051", "group": "last-30-days", "lat": 42.896549182273084, "lon": -44.13757875939027, "alt_km": 341.79354214090563, "timestamp": "2025-12-17T17:50:17.973544+00:00", "meta": {"OBJECT_NAME": "STARLINK-36051", "OBJECT_ID": "2025-278C", "EPOCH": "2025-12-17T08:00:04.999680", "MEAN_MOTION": 15.75462584, "ECCENTRICITY": 0.00022525, "INCLINATION": 42.9993, "RA_OF_ASC_NODE": 224.0131, "ARG_OF_PERICENTER": 271.6928, "MEAN_ANOMALY": 14.9163, "EPHEMERIS_TYPE": 0, "CLASSIFICATION_TYPE": "U", "NORAD_CAT_ID": 66793, "ELEMENT_SET_NO": 999, "REV_AT_EPOCH": 359, "BSTAR": -0.010173968, "MEAN_MOTION_DOT": -0.01412033, "MEAN_MOTION_DDOT": 0}, "tle": {"line1": "1 66793U 25278C   25351.33339120 -.01412033  00000+0 -10174-1 0  9994", "line2": "2 66793  42.9993 224.0131 0002252 271.6928  14.9163 15.75462584  3596"}}, "geometry": {"type": "Point", "coordinates": [-44.13757875939027, 42.896549182273084]}}, {"type": "Feature", "properties": {"norad_id": 66794, "name": "STARLINK-36062", "group": "last-30-days", "lat": 42.9654953812068, "lon": -46.75078130705257, "alt_km": 341.40219174969934, "timestamp": "2025-12-17T17:50:17.973554+00:00", "meta": {"OBJECT_NAME": "STARLINK-36062", "OBJECT_ID": "2025-278D", "EPOCH": "2025-12-17T08:00:04.999680", "MEAN_MOTION": 15.75465869, "ECCENTRICITY": 0.00017481, "INCLINATION": 42.9992, "RA_OF_ASC_NODE": 224.0179, "ARG_OF_PERICENTER": 275.0374, "MEAN_ANOMALY": 9.6468, "EPHEMERIS_TYPE": 0, "CLASSIFICATION_TYPE": "U", "NORAD_CAT_ID": 66794, "ELEMENT_SET_NO": 999, "REV_AT_EPOCH": 369, "BSTAR": -0.010146217, "MEAN_MOTION_DOT": -0.01408476, "MEAN_MOTION_DDOT": 0}, "tle": {"line1": "1 66794U 25278D   25351.33339120 -.01408476  00000+0 -10146-1 0  9990", "line2": "2 66794  42.9992 224.0179 0001748 275.0374   9.6468 15.75465869  3699"}}, "geometry": {"type": "Point", "coordinates": [-46.75078130705257, 42.9654953812068]}}, {"type": "Feature", "properties": {"norad_id": 66795, "name": "STARLINK-36047", "group": "last-30-days", "lat": 42.767693365553846, "lon": -41.52895750530949, "alt_km": 341.5022225417524, "timestamp": "2025-12-17T17:50:17.973564+00:00", "meta": {"OBJECT_NAME": "STARLINK-36047", "OBJECT_ID": "2025-278E", "EPOCH": "2025-12-17T08:00:04.999680", "MEAN_MOTION": 15.75468672, "ECCENTRICITY": 0.00017943, "INCLINATION": 42.9992, "RA_OF_ASC_NODE": 224.0083, "ARG_OF_PERICENTER": 269.145, "MEAN_ANOMALY": 19.381, "EPHEMERIS_TYPE": 0, "CLASSIFICATION_TYPE": "U", "NORAD_CAT_ID": 66795, "ELEMENT_SET_NO": 999, "REV_AT_EPOCH": 359, "BSTAR": -0.01023496, "MEAN_MOTION_DOT": -0.01419571, "MEAN_MOTION_DDOT": 0}, "tle": {"line1": "1 66795U 25278E   25351.33339120 -.01419571  00000+0 -10235-1 0  9998", "line2": "2 66795  42.9992 224.0083 0001794 269.1450  19.3810 15.75468672  3597"}}, "geometry": {"type": "Point", "coordinates": [-41.52895750530949, 42.767693365553846]}}]}